[{"OBJECT_NAME":"SL-8 R/B","OBJECT_ID":"1988-053B","EPOCH":"2026-03-24T11:38:27.061152","MEAN_MOTION":14.38925664,"ECCENTRICITY":0.0021522,"INCLINATION":74.0451,"RA_OF_ASC_NODE":85.1913,"ARG_OF_PERICENTER":262.5429,"MEAN_ANOMALY":261.1004,"EPHEMERIS_TYPE":0,"CLASSIFICATION_TYPE":"U","NORAD_CAT_ID":19257,"ELEMENT_SET_NO":999,"REV_AT_EPOCH":97872,"BSTAR":0.00011157,"MEAN_MOTION_DOT":3.18e-6,"MEAN_MOTION_DDOT":0},{"OBJECT_NAME":"COSMOS 1975","OBJECT_ID":"1988-093A","EPOCH":"2026-03-24T10:59:13.567488","MEAN_MOTION":15.28263221,"ECCENTRICITY":0.0013242,"INCLINATION":82.5167,"RA_OF_ASC_NODE":102.8551,"ARG_OF_PERICENTER":115.7677,"MEAN_ANOMALY":244.4931,"EPHEMERIS_TYPE":0,"CLASSIFICATION_TYPE":"U","NORAD_CAT_ID":19573,"ELEMENT_SET_NO":999,"REV_AT_EPOCH":2166,"BSTAR":0.00022699,"MEAN_MOTION_DOT":6.297e-5,"MEAN_MOTION_DDOT":0},{"OBJECT_NAME":"SL-14 R/B","OBJECT_ID":"1988-093B","EPOCH":"2026-03-24T05:18:33.939360","MEAN_MOTION":14.85673352,"ECCENTRICITY":0.0020525,"INCLINATION":82.5333,"RA_OF_ASC_NODE":28.4039,"ARG_OF_PERICENTER":354.6351,"MEAN_ANOMALY":125.4614,"EPHEMERIS_TYPE":0,"CLASSIFICATION_TYPE":"U","NORAD_CAT_ID":19574,"ELEMENT_SET_NO":999,"REV_AT_EPOCH":317,"BSTAR":6.62e-5,"MEAN_MOTION_DOT":6.0e-6,"MEAN_MOTION_DDOT":0},{"OBJECT_NAME":"SL-16 R/B","OBJECT_ID":"1988-102B","EPOCH":"2026-03-24T09:14:28.708800","MEAN_MOTION":14.16154852,"ECCENTRICITY":0.0014933,"INCLINATION":70.998,"RA_OF_ASC_NODE":120.5774,"ARG_OF_PERICENTER":339.1,"MEAN_ANOMALY":20.9511,"EPHEMERIS_TYPE":0,"CLASSIFICATION_TYPE":"U","NORAD_CAT_ID":19650,"ELEMENT_SET_NO":999,"REV_AT_EPOCH":92897,"BSTAR":-9.6129e-5,"MEAN_MOTION_DOT":-2.38e-6,"MEAN_MOTION_DDOT":0},{"OBJECT_NAME":"INTERCOSMOS 24","OBJECT_ID":"1989-080A","EPOCH":"2026-03-24T10:01:45.178464","MEAN_MOTION":12.59577279,"ECCENTRICITY":0.1186772,"INCLINATION":82.6013,"RA_OF_ASC_NODE":94.8104,"ARG_OF_PERICENTER":258.6018,"MEAN_ANOMALY":87.9736,"EPHEMERIS_TYPE":0,"CLASSIFICATION_TYPE":"U","NORAD_CAT_ID":20261,"ELEMENT_SET_NO":999,"REV_AT_EPOCH":66865,"BSTAR":0.00016295,"MEAN_MOTION_DOT":5.49e-6,"MEAN_MOTION_DDOT":0},{"OBJECT_NAME":"SL-14 R/B","OBJECT_ID":"1989-080C","EPOCH":"2026-03-24T12:27:54.772416","MEAN_MOTION":12.50508212,"ECCENTRICITY":0.1230866,"INCLINATION":82.5964,"RA_OF_ASC_NODE":163.6703,"ARG_OF_PERICENTER":150.8692,"MEAN_ANOMALY":216.7189,"EPHEMERIS_TYPE":0,"CLASSIFICATION_TYPE":"U","NORAD_CAT_ID":20262,"ELEMENT_SET_NO":999,"REV_AT_EPOCH":66200,"BSTAR":0.00011748,"MEAN_MOTION_DOT":4.16e-6,"MEAN_MOTION_DDOT":0},{"OBJECT_NAME":"DELTA 1 R/B","OBJECT_ID":"1989-089B","EPOCH":"2026-03-24T12:28:09.208992","MEAN_MOTION":14.50674837,"ECCENTRICITY":0.0070657,"INCLINATION":97.0694,"RA_OF_ASC_NODE":288.5982,"ARG_OF_PERICENTER":76.0573,"MEAN_ANOMALY":284.8471,"EPHEMERIS_TYPE":0,"CLASSIFICATION_TYPE":"U","NORAD_CAT_ID":20323,"ELEMENT_SET_NO":999,"REV_AT_EPOCH":89788,"BSTAR":8.5568e-5,"MEAN_MOTION_DOT":3.12e-6,"MEAN_MOTION_DDOT":0},{"OBJECT_NAME":"ARIANE 40 R/B","OBJECT_ID":"1990-005H","EPOCH":"2026-03-24T09:45:31.724352","MEAN_MOTION":14.39879774,"ECCENTRICITY":0.0010764,"INCLINATION":98.3053,"RA_OF_ASC_NODE":143.6274,"ARG_OF_PERICENTER":154.8964,"MEAN_ANOMALY":205.275,"EPHEMERIS_TYPE":0,"CLASSIFICATION_TYPE":"U","NORAD_CAT_ID":20443,"ELEMENT_SET_NO":999,"REV_AT_EPOCH":89492,"BSTAR":0.0001,"MEAN_MOTION_DOT":2.72e-6,"MEAN_MOTION_DDOT":0},{"OBJECT_NAME":"DELTA 2 R/B(1)","OBJECT_ID":"1990-008B","EPOCH":"2026-03-23T06:57:55.734624","MEAN_MOTION":15.57716328,"ECCENTRICITY":0.00799445,"INCLINATION":35.6034,"RA_OF_ASC_NODE":85.4758,"ARG_OF_PERICENTER":25.1791,"MEAN_ANOMALY":335.2813,"EPHEMERIS_TYPE":0,"CLASSIFICATION_TYPE":"U","NORAD_CAT_ID":20453,"ELEMENT_SET_NO":999,"REV_AT_EPOCH":92825,"BSTAR":0.00082028965,"MEAN_MOTION_DOT":0.00073697,"MEAN_MOTION_DDOT":0},{"OBJECT_NAME":"COSMOS 2058","OBJECT_ID":"1990-010A","EPOCH":"2026-03-24T08:18:08.454816","MEAN_MOTION":15.1144792,"ECCENTRICITY":0.0007503,"INCLINATION":82.4682,"RA_OF_ASC_NODE":32.9852,"ARG_OF_PERICENTER":288.6822,"MEAN_ANOMALY":71.3594,"EPHEMERIS_TYPE":0,"CLASSIFICATION_TYPE":"U","NORAD_CAT_ID":20465,"ELEMENT_SET_NO":999,"REV_AT_EPOCH":94445,"BSTAR":0.00025924,"MEAN_MOTION_DOT":4.412e-5,"MEAN_MOTION_DDOT":0},{"OBJECT_NAME":"SL-14 R/B","OBJECT_ID":"1990-010B","EPOCH":"2026-03-24T10:59:00.585024","MEAN_MOTION":14.83581654,"ECCENTRICITY":0.0018415,"INCLINATION":82.499,"RA_OF_ASC_NODE":253.5124,"ARG_OF_PERICENTER":249.7892,"MEAN_ANOMALY":110.1343,"EPHEMERIS_TYPE":0,"CLASSIFICATION_TYPE":"U","NORAD_CAT_ID":20466,"ELEMENT_SET_NO":999,"REV_AT_EPOCH":93067,"BSTAR":5.398e-5,"MEAN_MOTION_DOT":4.69e-6,"MEAN_MOTION_DDOT":0},{"OBJECT_NAME":"SL-14 R/B","OBJECT_ID":"1990-018B","EPOCH":"2026-03-24T10:07:53.134464","MEAN_MOTION":14.82159214,"ECCENTRICITY":0.0017238,"INCLINATION":82.523,"RA_OF_ASC_NODE":209.3214,"ARG_OF_PERICENTER":47.2711,"MEAN_ANOMALY":312.995,"EPHEMERIS_TYPE":0,"CLASSIFICATION_TYPE":"U","NORAD_CAT_ID":20511,"ELEMENT_SET_NO":999,"REV_AT_EPOCH":92476,"BSTAR":5.7656e-5,"MEAN_MOTION_DOT":4.84e-6,"MEAN_MOTION_DDOT":0},{"OBJECT_NAME":"HST","OBJECT_ID":"1990-037B","EPOCH":"2026-03-24T07:07:10.916832","MEAN_MOTION":15.29703539,"ECCENTRICITY":0.0001498,"INCLINATION":28.472,"RA_OF_ASC_NODE":300.3407,"ARG_OF_PERICENTER":295.029,"MEAN_ANOMALY":65.015,"EPHEMERIS_TYPE":0,"CLASSIFICATION_TYPE":"U","NORAD_CAT_ID":20580,"ELEMENT_SET_NO":999,"REV_AT_EPOCH":77555,"BSTAR":0.0002254,"MEAN_MOTION_DOT":6.906e-5,"MEAN_MOTION_DDOT":0},{"OBJECT_NAME":"SL-16 R/B","OBJECT_ID":"1990-046B","EPOCH":"2026-03-24T11:19:22.851264","MEAN_MOTION":14.15013321,"ECCENTRICITY":0.0016273,"INCLINATION":70.9953,"RA_OF_ASC_NODE":266.8664,"ARG_OF_PERICENTER":280.2557,"MEAN_ANOMALY":79.673,"EPHEMERIS_TYPE":0,"CLASSIFICATION_TYPE":"U","NORAD_CAT_ID":20625,"ELEMENT_SET_NO":999,"REV_AT_EPOCH":85048,"BSTAR":0.00011192,"MEAN_MOTION_DOT":1.69e-6,"MEAN_MOTION_DDOT":0},{"OBJECT_NAME":"COSMOS 2084","OBJECT_ID":"1990-055A","EPOCH":"2026-03-24T12:46:03.330336","MEAN_MOTION":15.05728508,"ECCENTRICITY":0.0014744,"INCLINATION":62.7895,"RA_OF_ASC_NODE":284.9523,"ARG_OF_PERICENTER":194.3379,"MEAN_ANOMALY":165.7305,"EPHEMERIS_TYPE":0,"CLASSIFICATION_TYPE":"U","NORAD_CAT_ID":20663,"ELEMENT_SET_NO":999,"REV_AT_EPOCH":93855,"BSTAR":0.00017544,"MEAN_MOTION_DOT":2.354e-5,"MEAN_MOTION_DDOT":0},{"OBJECT_NAME":"SL-6 R/B(2)","OBJECT_ID":"1990-055D","EPOCH":"2026-03-24T09:38:49.540992","MEAN_MOTION":15.03663853,"ECCENTRICITY":0.0027206,"INCLINATION":62.783,"RA_OF_ASC_NODE":203.8156,"ARG_OF_PERICENTER":350.4726,"MEAN_ANOMALY":9.5853,"EPHEMERIS_TYPE":0,"CLASSIFICATION_TYPE":"U","NORAD_CAT_ID":20666,"ELEMENT_SET_NO":999,"REV_AT_EPOCH":94040,"BSTAR":0.0001712,"MEAN_MOTION_DOT":2.171e-5,"MEAN_MOTION_DDOT":0},{"OBJECT_NAME":"SL-8 R/B","OBJECT_ID":"1990-078B","EPOCH":"2026-03-24T10:09:54.014976","MEAN_MOTION":14.89517874,"ECCENTRICITY":0.0359209,"INCLINATION":82.902,"RA_OF_ASC_NODE":238.0523,"ARG_OF_PERICENTER":324.3502,"MEAN_ANOMALY":33.419,"EPHEMERIS_TYPE":0,"CLASSIFICATION_TYPE":"U","NORAD_CAT_ID":20775,"ELEMENT_SET_NO":999,"REV_AT_EPOCH":81149,"BSTAR":0.00037492,"MEAN_MOTION_DOT":0.00012672,"MEAN_MOTION_DDOT":0}]
