SL-8 R/B                
1 19257U 88053B   26083.48503543  .00000318  00000+0  11157-3 0  9998
2 19257  74.0451  85.1913 0021522 262.5429 261.1004 14.38925664978721
COSMOS 1975             
1 19573U 88093A   26083.45779592  .00006297  00000+0  22699-3 0  9994
2 19573  82.5167 102.8551 0013242 115.7677 244.4931 15.28263221 21668
SL-14 R/B               
1 19574U 88093B   26083.22122615  .00000600  00000+0  66200-4 0  9997
2 19574  82.5333  28.4039 0020525 354.6351 125.4614 14.85673352  3177
SL-16 R/B               
1 19650U 88102B   26083.38505450 -.00000238  00000+0 -96129-4 0  9994
2 19650  70.9980 120.5774 0014933 339.1000  20.9511 14.16154852928978
INTERCOSMOS 24          
1 20261U 89080A   26083.41788401  .00000549  00000+0  16295-3 0  9991
2 20261  82.6013  94.8104 1186772 258.6018  87.9736 12.59577279668656
SL-14 R/B               
1 20262U 89080C   26083.51938394  .00000416  00000+0  11748-3 0  9992
2 20262  82.5964 163.6703 1230866 150.8692 216.7189 12.50508212662005
DELTA 1 R/B             
1 20323U 89089B   26083.51955103  .00000312  00000+0  85568-4 0  9993
2 20323  97.0694 288.5982 0070657  76.0573 284.8471 14.50674837897881
ARIANE 40 R/B           
1 20443U 90005H   26083.40661718  .00000272  00000+0  10000-3 0  9993
2 20443  98.3053 143.6274 0010764 154.8964 205.2750 14.39879774894927
DELTA 2 R/B(1)          
1 20453U 90008B   26082.29022841  .00073697  00000+0  82029-3 0  9992
2 20453  35.6034  85.4758 0079944  25.1791 335.2813 15.57716328928258
COSMOS 2058             
1 20465U 90010A   26083.34593119  .00004412  00000+0  25924-3 0  9996
2 20465  82.4682  32.9852 0007503 288.6822  71.3594 15.11447920944458
SL-14 R/B               
1 20466U 90010B   26083.45764566  .00000469  00000+0  53980-4 0  9997
2 20466  82.4990 253.5124 0018415 249.7892 110.1343 14.83581654930677
SL-14 R/B               
1 20511U 90018B   26083.42214276  .00000484  00000+0  57656-4 0  9992
2 20511  82.5230 209.3214 0017238  47.2711 312.9950 14.82159214924769
HST                     
1 20580U 90037B   26083.29665413  .00006906  00000+0  22540-3 0  9995
2 20580  28.4720 300.3407 0001498 295.0290  65.0150 15.29703539775556
SL-16 R/B               
1 20625U 90046B   26083.47179226  .00000169  00000+0  11192-3 0  9993
2 20625  70.9953 266.8664 0016273 280.2557  79.6730 14.15013321850484
COSMOS 2084             
1 20663U 90055A   26083.53198299  .00002354  00000+0  17544-3 0  9998
2 20663  62.7895 284.9523 0014744 194.3379 165.7305 15.05728508938553
SL-6 R/B(2)             
1 20666U 90055D   26083.40196228  .00002171  00000+0  17120-3 0  9994
2 20666  62.7830 203.8156 0027206 350.4726   9.5853 15.03663853940404
SL-8 R/B                
1 20775U 90078B   26083.42354184  .00012672  00000+0  37492-3 0  9990
2 20775  82.9020 238.0523 0359209 324.3502  33.4190 14.89517874811491
